{
  "type": "FeatureCollection",
  "features": [
    {
      "type": "Feature",
      "properties": {
        "norad_id": 41772,
        "name": "SKYSAT-C5",
        "group": "resource",
        "lat": -50.102162105352,
        "lon": -165.8920018095015,
        "alt_km": 466.7696394523273,
        "timestamp": "2025-12-04T13:52:00.105474+00:00",
        "meta_object_name": "SKYSAT-C5",
        "meta_object_id": "2016-058C",
        "meta_epoch": "2025-12-04T01:55:03.026496",
        "meta_mean_motion": 15.35427331,
        "meta_eccentricity": 0.00029032,
        "meta_inclination": 97.0762,
        "meta_ra_of_asc_node": 22.1744,
        "meta_arg_of_pericenter": 128.7771,
        "meta_mean_anomaly": 231.3733,
        "meta_ephemeris_type": 0,
        "meta_classification_type": "U",
        "meta_norad_cat_id": 41772,
        "meta_element_set_no": 999,
        "meta_rev_at_epoch": 51383,
        "meta_bstar": 0.0030293433,
        "meta_mean_motion_dot": 0.00105513,
        "meta_mean_motion_ddot": 0,
        "tle_line1": "1 41772U 16058C   25338.07989614  .00105513  00000+0  30293-2 0  9999",
        "tle_line2": "2 41772  97.0762  22.1744 0002903 128.7771 231.3733 15.35427331513837"
      },
      "geometry": {
        "type": "Point",
        "coordinates": [
          -165.8920018095015,
          -50.102162105352
        ]
      }
    },
    {
      "type": "Feature",
      "properties": {
        "norad_id": 41773,
        "name": "SKYSAT-C2",
        "group": "resource",
        "lat": -7.902442220933874,
        "lon": -177.5297829938076,
        "alt_km": 461.4701028326672,
        "timestamp": "2025-12-04T13:52:00.105484+00:00",
        "meta_object_name": "SKYSAT-C2",
        "meta_object_id": "2016-058D",
        "meta_epoch": "2025-12-04T00:33:07.667424",
        "meta_mean_motion": 15.3696681,
        "meta_eccentricity": 0.00050471,
        "meta_inclination": 97.0367,
        "meta_ra_of_asc_node": 2.9215,
        "meta_arg_of_pericenter": 56.6166,
        "meta_mean_anomaly": 303.5562,
        "meta_ephemeris_type": 0,
        "meta_classification_type": "U",
        "meta_norad_cat_id": 41773,
        "meta_element_set_no": 999,
        "meta_rev_at_epoch": 51502,
        "meta_bstar": 0.00059241602,
        "meta_mean_motion_dot": 0.00021384,
        "meta_mean_motion_ddot": 0,
        "tle_line1": "1 41773U 16058D   25338.02300541  .00021384  00000+0  59242-3 0  9990",
        "tle_line2": "2 41773  97.0367   2.9215 0005047  56.6166 303.5562 15.36966810515023"
      },
      "geometry": {
        "type": "Point",
        "coordinates": [
          -177.5297829938076,
          -7.902442220933874
        ]
      }
    },
    {
      "type": "Feature",
      "properties": {
        "norad_id": 41774,
        "name": "SKYSAT-C3",
        "group": "resource",
        "lat": 10.201045412684612,
        "lon": -166.03895834480522,
        "alt_km": 435.8297200186744,
        "timestamp": "2025-12-04T13:52:00.105494+00:00",
        "meta_object_name": "SKYSAT-C3",
        "meta_object_id": "2016-058E",
        "meta_epoch": "2025-12-04T02:14:46.368672",
        "meta_mean_motion": 15.43936527,
        "meta_eccentricity": 0.00013715,
        "meta_inclination": 96.9308,
        "meta_ra_of_asc_node": 12.2453,
        "meta_arg_of_pericenter": 99.1498,
        "meta_mean_anomaly": 260.9907,
        "meta_ephemeris_type": 0,
        "meta_classification_type": "U",
        "meta_norad_cat_id": 41774,
        "meta_element_set_no": 999,
        "meta_rev_at_epoch": 51592,
        "meta_bstar": 0.00075718839,
        "meta_mean_motion_dot": 0.0003446,
        "meta_mean_motion_ddot": 0,
        "tle_line1": "1 41774U 16058E   25338.09359223  .00034460  00000+0  75719-3 0  9995",
        "tle_line2": "2 41774  96.9308  12.2453 0001371  99.1498 260.9907 15.43936527515929"
      },
      "geometry": {
        "type": "Point",
        "coordinates": [
          -166.03895834480522,
          10.201045412684612
        ]
      }
    },
    {
      "type": "Feature",
      "properties": {
        "norad_id": 41785,
        "name": "ALSAT 1B",
        "group": "resource",
        "lat": -16.738760875805273,
        "lon": -6.923119944672445,
        "alt_km": 665.3034860102953,
        "timestamp": "2025-12-04T13:52:00.105504+00:00",
        "meta_object_name": "ALSAT 1B",
        "meta_object_id": "2016-059C",
        "meta_epoch": "2025-12-04T07:25:04.696032",
        "meta_mean_motion": 14.72062156,
        "meta_eccentricity": 0.00104284,
        "meta_inclination": 97.7819,
        "meta_ra_of_asc_node": 350.4626,
        "meta_arg_of_pericenter": 127.6998,
        "meta_mean_anomaly": 232.5157,
        "meta_ephemeris_type": 0,
        "meta_classification_type": "U",
        "meta_norad_cat_id": 41785,
        "meta_element_set_no": 999,
        "meta_rev_at_epoch": 49190,
        "meta_bstar": 0.00015514104,
        "meta_mean_motion_dot": 9.29e-06,
        "meta_mean_motion_ddot": 0,
        "tle_line1": "1 41785U 16059C   25338.30908213  .00000929  00000+0  15514-3 0  9991",
        "tle_line2": "2 41785  97.7819 350.4626 0010428 127.6998 232.5157 14.72062156491903"
      },
      "geometry": {
        "type": "Point",
        "coordinates": [
          -6.923119944672445,
          -16.738760875805273
        ]
      }
    },
    {
      "type": "Feature",
      "properties": {
        "norad_id": 41787,
        "name": "PATHFINDER 1",
        "group": "resource",
        "lat": -21.738165400701117,
        "lon": 158.5916010465001,
        "alt_km": 677.1594169159571,
        "timestamp": "2025-12-04T13:52:00.105514+00:00",
        "meta_object_name": "PATHFINDER 1",
        "meta_object_id": "2016-059E",
        "meta_epoch": "2025-12-04T06:24:22.015008",
        "meta_mean_motion": 14.67298985,
        "meta_eccentricity": 0.00299806,
        "meta_inclination": 97.8138,
        "meta_ra_of_asc_node": 341.4338,
        "meta_arg_of_pericenter": 106.9303,
        "meta_mean_anomaly": 253.5193,
        "meta_ephemeris_type": 0,
        "meta_classification_type": "U",
        "meta_norad_cat_id": 41787,
        "meta_element_set_no": 999,
        "meta_rev_at_epoch": 49112,
        "meta_bstar": 0.00028403754,
        "meta_mean_motion_dot": 1.567e-05,
        "meta_mean_motion_ddot": 0,
        "tle_line1": "1 41787U 16059E   25338.26692147  .00001567  00000+0  28404-3 0  9995",
        "tle_line2": "2 41787  97.8138 341.4338 0029980 106.9303 253.5193 14.67298985491125"
      },
      "geometry": {
        "type": "Point",
        "coordinates": [
          158.5916010465001,
          -21.738165400701117
        ]
      }
    },
    {
      "type": "Feature",
      "properties": {
        "norad_id": 41790,
        "name": "SCATSAT 1",
        "group": "resource",
        "lat": -33.60224452541853,
        "lon": -150.31623662423303,
        "alt_km": 619.2676964750999,
        "timestamp": "2025-12-04T13:52:00.105524+00:00",
        "meta_object_name": "SCATSAT 1",
        "meta_object_id": "2016-059H",
        "meta_epoch": "2025-12-04T03:09:47.807712",
        "meta_mean_motion": 14.78889586,
        "meta_eccentricity": 0.00558089,
        "meta_inclination": 98.1477,
        "meta_ra_of_asc_node": 34.6947,
        "meta_arg_of_pericenter": 155.3473,
        "meta_mean_anomaly": 205.0424,
        "meta_ephemeris_type": 0,
        "meta_classification_type": "U",
        "meta_norad_cat_id": 41790,
        "meta_element_set_no": 999,
        "meta_rev_at_epoch": 7275,
        "meta_bstar": 0.00049552348,
        "meta_mean_motion_dot": 3.692e-05,
        "meta_mean_motion_ddot": 0,
        "tle_line1": "1 41790U 16059H   25338.13180333  .00003692  00000+0  49552-3 0  9992",
        "tle_line2": "2 41790  98.1477  34.6947 0055808 155.3473 205.0424 14.78889586 72758"
      },
      "geometry": {
        "type": "Point",
        "coordinates": [
          -150.31623662423303,
          -33.60224452541853
        ]
      }
    },
    {
      "type": "Feature",
      "properties": {
        "norad_id": 41875,
        "name": "GOKTURK 1A",
        "group": "resource",
        "lat": 50.799994126619595,
        "lon": -139.05905010877993,
        "alt_km": 678.7620044541363,
        "timestamp": "2025-12-04T13:52:00.105534+00:00",
        "meta_object_name": "GOKTURK 1A",
        "meta_object_id": "2016-073A",
        "meta_epoch": "2025-12-04T07:03:54.678240",
        "meta_mean_motion": 14.62764917,
        "meta_eccentricity": 0.00012978,
        "meta_inclination": 98.1432,
        "meta_ra_of_asc_node": 230.7728,
        "meta_arg_of_pericenter": 79.2118,
        "meta_mean_anomaly": 280.923,
        "meta_ephemeris_type": 0,
        "meta_classification_type": "U",
        "meta_norad_cat_id": 41875,
        "meta_element_set_no": 999,
        "meta_rev_at_epoch": 48033,
        "meta_bstar": 0.00041066435,
        "meta_mean_motion_dot": 2.047e-05,
        "meta_mean_motion_ddot": 0,
        "tle_line1": "1 41875U 16073A   25338.29438285  .00002047  00000+0  41066-3 0  9996",
        "tle_line2": "2 41875  98.1432 230.7728 0001297  79.2118 280.9230 14.62764917480339"
      },
      "geometry": {
        "type": "Point",
        "coordinates": [
          -139.05905010877993,
          50.799994126619595
        ]
      }
    }
  ]
}